P/2011 S1 (Gibbs),e,2.6861,218.8506,192.4421,8.583575,0.0391924,0.20108278,108.1484,03/03.0/2022,2000,g  8.0,4.0
# From MPC 79022
P/2011 UA134 (Spacewatch-PANSTARRS),e,10.4405,40.4004,32.4072,5.608415,0.0742068,0.62954498,279.6797,03/03.0/2022,2000,g 17.5,4.0
# From MPC 77406
P/2011 V1 (Boattini),e,7.3750,46.8034,269.3435,3.856444,0.1301438,0.55037914,162.3750,03/03.0/2022,2000,g 15.5,4.0
# From MPC 82718
P/2011 W1 (PANSTARRS),e,3.7185,161.7865,282.7529,4.663500,0.0978670,0.28765747,2.2774,03/03.0/2022,2000,g 11.5,4.0
# From MPC 79342
P/2011 Y2 (Boattini),e,6.3741,309.3501,131.9210,6.239080,0.0632446,0.70985274,230.9089,03/03.0/2022,2000,g 15.0,4.0
# From MPC 94669
P/2012 B1 (PANSTARRS),e,7.6109,36.2154,162.4723,6.530796,0.0590548,0.40902848,186.2422,03/03.0/2022,2000,g  9.0,4.0
# From MPC 78590
P/2012 C3 (PANSTARRS),e,9.0920,135.3677,344.9542,9.748681,0.0323806,0.63011148,359.9758,10/06.0/2011,2000,g 13.0,4.0
# From MPC 84931
P/2012 F2 (PANSTARRS),e,14.7078,227.0092,33.3176,6.333017,0.0618427,0.54167930,200.8602,03/03.0/2022,2000,g 12.0,4.0
# From MPEC 2022-CN4
P/2012 G1 (PANSTARRS),e,12.1750,283.2807,266.0731,4.164328,0.1159809,0.32977730,60.1798,03/03.0/2022,2000,g 15.0,4.0
# From MPC 80898
P/2012 K3 (Gibbs),e,13.1930,125.8139,172.2246,3.627062,0.1426828,0.42302885,132.4979,03/03.0/2022,2000,g 15.0,4.0
# From MPC 88326
P/2012 NJ (La Sagra),e,84.6372,315.5590,338.3692,8.463922,0.0400264,0.84697400,142.0360,03/03.0/2022,2000,g 14.5,4.0
# From MPC 81470
P/2012 O1 (McNaught),e,7.4292,91.9583,238.2813,3.541238,0.1479011,0.59450699,162.1350,03/03.0/2022,2000,g 17.5,4.0
# From MPC 80899
P/2012 O2 (McNaught),e,24.4798,120.6836,183.4605,3.625128,0.1427970,0.53243098,147.3561,03/03.0/2022,2000,g 17.0,4.0
# From MPC 82720
P/2012 O3 (McNaught),e,16.6160,336.4137,344.7545,4.572253,0.1008112,0.64701269,351.1515,03/03.0/2022,2000,g 16.5,4.0
# From MPC 82320
P/2012 T2 (PANSTARRS),e,12.5628,73.7166,310.5647,5.731943,0.0718210,0.16185204,232.2557,03/03.0/2022,2000,g 10.0,4.0
# From MPC 80900
P/2012 T3 (PANSTARRS),e,9.5636,114.3919,195.5078,6.151218,0.0646044,0.61707929,231.8682,03/03.0/2022,2000,g 15.0,4.0
# From MPC 82720
P/2012 U2 (PANSTARRS),e,10.7577,185.3140,228.2458,7.135822,0.0517057,0.49916886,175.7137,03/03.0/2022,2000,g 12.5,4.0
# From MPC 84024
P/2012 US27 (Siding Spring),e,39.3578,49.1920,0.8066,5.165987,0.0839410,0.64796621,279.1240,03/03.0/2022,2000,g 13.5,4.0
# From MPC 82721
P/2012 WA34 (Lemmon-PANSTARRS),e,6.0779,93.6908,356.0431,4.699614,0.0967411,0.34551944,312.5434,03/03.0/2022,2000,g 13.5,4.0
# From MPC 82721
P/2013 AL76 (Catalina),e,144.8554,145.9945,27.0627,6.497401,0.0595106,0.68630566,200.8469,03/03.0/2022,2000,g 16.0,4.0
# From MPC 91612
P/2013 G1 (Kowalski),e,5.4612,221.3487,51.5049,6.893468,0.0544562,0.51207601,163.5440,03/03.0/2022,2000,g 11.0,4.0
# From MPC 84025
P/2013 G4 (PANSTARRS),e,5.9163,339.6383,214.6520,4.440385,0.1053351,0.40944753,348.5828,03/03.0/2022,2000,g 15.0,4.0
# From MPC 91613
P/2013 J2 (McNaught),e,15.5225,289.3895,37.8072,6.222829,0.0634925,0.65760841,197.2589,03/03.0/2022,2000,g 13.0,4.0
# From MPC 86229
P/2013 N3 (PANSTARRS),e,2.1740,17.4639,323.9372,7.392870,0.0490326,0.59328310,143.9374,03/03.0/2022,2000,g 13.0,4.0
# From MPC 85834
P/2013 N5 (PANSTARRS),e,23.4533,187.1562,176.9171,6.797631,0.0556119,0.73240395,175.8760,03/03.0/2022,2000,g 17.0,4.0
# From MPC 85834
P/2013 P1 (PANSTARRS),e,18.7251,160.5904,138.2146,8.576740,0.0392393,0.60537078,129.0333,03/03.0/2022,2000,g 12.0,4.0
# From MPC 94671
P/2013 R3 (Catalina-PANSTARRS),e,0.8650,341.9938,11.2195,3.033058,0.1865877,0.27544797,220.4180,03/03.0/2022,2000,g 14.0,4.0
# From unp
P/2013 R3-A (Catalina-PANSTARRS),e,0.8644,341.9607,11.2585,3.032916,0.1866008,0.27541758,220.4563,03/03.0/2022,2000,g  9.0,4.0
# From MPEC 2015-M77
P/2013 R3-B (Catalina-PANSTARRS),e,0.8657,342.0166,11.1933,3.033135,0.1865806,0.27546291,220.3974,03/03.0/2022,2000,g  9.0,4.0
# From MPC 85835
P/2013 T1 (PANSTARRS),e,24.2982,10.0805,346.1307,5.858631,0.0695040,0.62418172,217.6754,03/03.0/2022,2000,g 16.5,4.0
# From MPC 86643
P/2013 T2 (Schwartz),e,9.4574,0.8012,345.5494,3.491096,0.1510989,0.50121660,124.3856,03/03.0/2022,2000,g 16.0,4.0
# From MPC 91613
P/2013 W1 (PANSTARRS),e,4.6957,117.8447,1.2575,3.488736,0.1512523,0.59272634,81.4893,03/03.0/2022,2000,g 17.5,4.0
# From MPC101095
P/2013 YG46 (Spacewatch),e,7.8568,48.8384,242.5718,3.275089,0.1662913,0.45479130,308.5782,03/03.0/2022,2000,g 10.0,4.0
# From MPC 89728
P/2014 A2 (Hill),e,24.5371,106.6299,356.1675,5.927439,0.0682973,0.64535938,209.3329,03/03.0/2022,2000,g 15.0,4.0
# From MPC 92981
P/2014 A3 (PANSTARRS),e,13.7077,229.9877,213.8882,4.614183,0.0994402,0.24721062,318.8364,03/03.0/2022,2000,g 12.0,4.0
# From MPEC 2021-Y10
C/2014 B1 (Schwartz),e,28.4114,161.4223,345.6706,4379,0.0000034,0.99781999,0.0000,09/06.8087/2017,2000,g  4.0,4.0
# From MPC102095
P/2014 C1 (TOTAS),e,2.6917,167.7905,23.8954,3.035675,0.1863464,0.44958685,196.3489,03/03.0/2022,2000,g 15.5,4.0
# From MPC 94280
C/2014 F3 (Sheppard-Trujillo),e,6.5767,326.6705,3.9290,14.96628,0.0170229,0.61965731,4.8519,03/03.0/2022,2000,g  6.0,4.0
# From MPC 98560
P/2014 L2 (NEOWISE),e,5.1997,149.3472,182.6895,6.304286,0.0622659,0.64819766,173.2208,03/03.0/2022,2000,g 12.0,4.0
# From MPC 90769
P/2014 L3 (Hill),e,6.2734,115.4813,178.6864,8.174128,0.0421737,0.77331945,118.1526,03/03.0/2022,2000,g 16.0,4.0
# From MPC 91614
P/2014 M4 (PANSTARRS),e,3.3394,263.2206,147.9851,5.870960,0.0692852,0.59496031,181.7428,03/03.0/2022,2000,g 15.0,4.0
# From MPC103844
P/2014 MG4 (Spacewatch-PANSTARRS),e,9.3695,311.7342,299.0782,5.012720,0.0878201,0.25920270,279.2549,03/03.0/2022,2000,g  9.5,4.0
# From MPC 98560
P/2014 O3 (PANSTARRS),e,7.8011,87.6444,204.7232,7.571111,0.0473113,0.38532794,135.9615,03/03.0/2022,2000,g 10.5,4.0
# From MPEC 2022-C56
C/2014 OG392 (PANSTARRS),e,9.0328,145.7950,254.1390,12.24082,0.0230138,0.18555320,2.1201,03/03.0/2022,2000,g  6.0,4.0
# From MPC 91615
P/2014 R5 (Lemmon-PANSTARRS),e,1.0883,126.5600,213.7358,4.057390,0.1205963,0.41393504,339.6249,03/03.0/2022,2000,g 15.0,4.0
# From MPC 91616
P/2014 U4 (PANSTARRS),e,6.4291,11.8868,347.7822,3.507241,0.1500568,0.46492982,57.3851,03/03.0/2022,2000,g 18.0,4.0
# From MPEC 2022-CN4
C/2014 UN271 (Bernardinelli-Bernstein),e,95.4350,189.9084,326.3243,20984,0.0000003,0.99947872,0.0000,01/25.1494/2031,2000,g  2.5,3.2
# From MPC 95211
P/2014 V1 (PANSTARRS),e,22.5268,166.2002,177.6172,5.480103,0.0768283,0.53448930,199.2320,03/03.0/2022,2000,g 14.0,4.0
# From MPC 93586
P/2014 W1 (PANSTARRS),e,8.8372,246.2423,152.1759,4.463887,0.1045043,0.38901151,291.3862,03/03.0/2022,2000,g 15.5,4.0
# From MPC105542
P/2014 W4 (PANSTARRS),e,15.2798,33.3748,67.6808,6.592881,0.0582225,0.35261408,131.3124,03/03.0/2022,2000,g 11.0,4.0
# From MPC 94281
P/2014 X1 (Elenin),e,26.0284,61.5357,33.9061,6.206978,0.0637358,0.70900845,166.9041,03/03.0/2022,2000,g 15.0,4.0
# From MPC 92275
P/2015 A3 (PANSTARRS),e,172.5355,277.2477,249.3552,7.811929,0.0451405,0.85070616,116.0534,03/03.0/2022,2000,g 20.0,4.0
# From MPC 99270
P/2015 B1 (PANSTARRS),e,18.0431,352.9561,188.9012,9.495220,0.0336858,0.36710387,79.6279,03/03.0/2022,2000,g  8.5,4.0
# From MPC109141
P/2015 B4 (Lemmon-PANSTARRS),e,1.7613,266.0368,227.3592,8.523359,0.0396085,0.56015837,102.4066,03/03.0/2022,2000,g 11.0,4.0
# From MPC101096
P/2015 C1 (TOTAS-Gibbs),e,13.9053,348.8020,178.1962,6.578801,0.0584096,0.56045231,146.2936,03/03.0/2022,2000,g 12.5,4.0
# From MPC109141
P/2015 D5 (Kowalski),e,20.5180,74.0637,39.7516,8.960710,0.0367443,0.48925328,106.3370,03/03.0/2022,2000,g  9.0,4.0
# From MPC 96866
P/2015 D6 (Lemmon-PANSTARRS),e,20.2022,45.9204,125.0904,7.139710,0.0516634,0.36134370,126.0120,03/03.0/2022,2000,g 10.5,4.0
# From MPEC 2021-P47
C/2015 ER61 (PANSTARRS),e,6.3232,235.0554,68.4916,532.4833,0.0000802,0.99803301,0.0000,05/10.3885/2017,2000,g 11.0,2.0
# From MPEC 2018-BF5
C/2015 E61-B (PANSTARRS),e,6.3248,235.0905,68.5811,1751,0.0000134,0.99940100,0.0000,05/10.3667/2017,2000,g 13.5,2.0
# From MPEC 2021-P47
P/2015 HG16 (PANSTARRS),e,18.7818,58.0446,47.7197,4.757368,0.0949848,0.35240995,268.3938,03/03.0/2022,2000,g 12.5,4.0
# From MPC 95213
P/2015 K5 (PANSTARRS),e,39.9448,134.1871,106.3534,6.724364,0.0565233,0.55253135,139.3235,03/03.0/2022,2000,g 13.5,4.0
# From MPC107684
P/2015 M2 (PANSTARRS),e,3.9710,86.5862,225.7895,7.237176,0.0506233,0.18051656,119.6338,03/03.0/2022,2000,g  8.5,4.0
# From MPEC 2021-P47
C/2015 O1 (PANSTARRS),h,02/20.0361/2018,127.2061,299.8441,89.5942,1.001526,3.725287,2000,6.5,4.0
# From MPC 99819
P/2015 P4 (PANSTARRS),e,8.7173,104.7227,280.6046,6.047554,0.0662727,0.58537015,147.9314,03/03.0/2022,2000,g 14.0,4.0
# From MPC102952
P/2015 PD229 (Cameron-ISON),e,2.0260,342.6392,352.5880,7.187915,0.0511446,0.32801468,122.2165,03/03.0/2022,2000,g 11.5,2.0
# From MPC 96867
P/2015 Q2 (Pimentel),e,146.5284,228.4851,244.5842,7.351875,0.0494432,0.75056394,117.1724,03/03.0/2022,2000,g 15.5,4.0
# From MPC 98562
P/2015 R1 (PANSTARRS),e,22.6896,48.3653,300.5167,5.880200,0.0691219,0.63437216,168.5294,03/03.0/2022,2000,g 14.0,4.0
# From MPC 95734
P/2015 R2 (PANSTARRS),e,15.4849,168.5969,149.8175,4.486824,0.1037040,0.45290569,254.4176,03/03.0/2022,2000,g 14.5,4.0
# From MPC117068
C/2015 T2 (PANSTARRS),e,124.5633,50.9883,30.6689,1755,0.0000134,0.99604597,0.0000,05/18.2205/2017,2000,g  8.0,4.0
# From MPC 96280
P/2015 T3 (PANSTARRS),e,13.0937,120.5019,178.6330,4.326181,0.1095335,0.50818108,359.9227,12/21.0/2014,2000,g 14.0,4.0
# From MPC102953
P/2015 TO19 (Lemmon-PANSTARRS),e,6.4998,321.6437,89.1271,4.553818,0.1014240,0.35884004,221.8935,03/03.0/2022,2000,g 14.0,4.0
# From MPC110080
P/2015 TP200 (LINEAR),e,8.7802,7.0162,82.4931,7.268537,0.0502960,0.53556008,98.1986,03/03.0/2022,2000,g 11.0,4.0
# From MPC115881
C/2015 V1 (PANSTARRS),e,139.2277,197.1544,179.6492,2091,0.0000103,0.99795563,0.0000,12/16.4834/2017,2000,g  6.5,4.0
# From MPC112390
C/2015 V2 (Johnson),h,06/11.2084/2017,49.8135,69.9813,164.9819,1.001740,1.647570,2000,5.0,4.0
# From MPC115881
